NORAD_CAT_ID,OBJECT_NAME,OBJECT_TYPE,EPOCH,MEAN_MOTION,ECCENTRICITY,INCLINATION,RA_OF_ASC_NODE,ARG_OF_PERICENTER,MEAN_ANOMALY,BSTAR,MEAN_MOTION_DOT,MEAN_MOTION_DDOT,TLE_LINE0,TLE_LINE1,TLE_LINE2,SEMIMAJOR_AXIS,PERIOD,APOGEE,PERIGEE,DECAYED
51880.0,STARLINK-3566,PAYLOAD,2023-07-01 01:32:40,15.08836642,0.0001146,53.2175,100.0203,86.6397,273.4726,-6.9162e-05,-1.388e-05,0.0,0 STARLINK-3566,1 51880U 22022AE  23182.06435440 -.00001388  00000-0 -69162-4 0  9992,2 51880  53.2175 100.0203 0001146  86.6397 273.4726 15.08836642 74773,6917.891,95.438,540.548,538.963,0.0
51880.0,STARLINK-3566,PAYLOAD,2023-07-02 01:23:26,15.08844652,0.0001045,53.2177,95.5598,91.6191,268.4921,1.7437e-05,-1e-07,0.0,0 STARLINK-3566,1 51880U 22022AE  23183.05794916 -.00000010  00000-0  17437-4 0  9996,2 51880  53.2177  95.5598 0001045  91.6191 268.4921 15.08844652 74924,6917.866,95.437,540.454,539.008,0.0
51880.0,STARLINK-3566,PAYLOAD,2023-07-02 10:55:46,15.08833114,0.0001109,53.2178,93.7753,86.4589,273.653,6.8978e-05,8.1e-06,0.0,0 STARLINK-3566,1 51880U 22022AE  23183.45539547  .00000810  00000-0  68978-4 0  9990,2 51880  53.2178  93.7753 0001109  86.4589 273.6530 15.08833114 74983,6917.901,95.438,540.534,538.999,0.0
51880.0,STARLINK-3566,PAYLOAD,2023-07-04 02:40:24,15.08847712,0.0001343,53.2184,86.3421,105.2646,254.8495,5.9413e-05,6.58e-06,0.0,0 STARLINK-3566,1 51880U 22022AE  23185.11138895  .00000658  00000-0  59413-4 0  9990,2 51880  53.2184  86.3421 0001343 105.2646 254.8495 15.08847712 75233,6917.857,95.437,540.651,538.793,0.0
51880.0,STARLINK-3566,PAYLOAD,2023-07-05 00:55:48,15.08838927,0.0001294,53.2182,82.1768,94.7029,265.4111,-2.0817e-05,-6.19e-06,0.0,0 STARLINK-3566,1 51880U 22022AE  23186.03875814 -.00000619  00000-0 -20817-4 0  9996,2 51880  53.2182  82.1768 0001294  94.7029 265.4111 15.08838927 75377,6917.884,95.438,540.644,538.853,0.0
51880.0,STARLINK-3566,PAYLOAD,2023-07-06 02:21:58,15.08847188,0.0001252,53.2178,77.4189,92.4799,267.6337,3.0825e-05,2.03e-06,0.0,0 STARLINK-3566,1 51880U 22022AE  23187.09859151  .00000203  00000-0  30825-4 0  9996,2 51880  53.2178  77.4189 0001252  92.4799 267.6337 15.08847188 75530,6917.858,95.437,540.59,538.857,0.0
51880.0,STARLINK-3566,PAYLOAD,2023-07-08 02:03:32,15.08840495,0.00013,53.2182,68.4985,85.9113,274.2028,1.449e-07,-2.86e-06,0.0,0 STARLINK-3566,1 51880U 22022AE  23189.08579721 -.00000286  00000-0  14490-6 0  9993,2 51880  53.2182  68.4985 0001300  85.9113 274.2028 15.08840495 75838,6917.879,95.438,540.643,538.845,0.0
51880.0,STARLINK-3566,PAYLOAD,2023-07-08 19:32:47,15.08835394,0.0001294,53.2182,65.2278,86.1987,273.9153,-4.183e-05,-9.53e-06,0.0,0 STARLINK-3566,1 51880U 22022AE  23189.81444312 -.00000953  00000-0 -41830-4 0  9999,2 51880  53.2182  65.2278 0001294  86.1987 273.9153 15.08835394 75941,6917.894,95.438,540.655,538.864,0.0
51880.0,STARLINK-3566,PAYLOAD,2023-07-08 22:43:33,15.08843557,0.0001192,53.2182,64.633,83.1932,276.9196,-4.1779e-05,-9.53e-06,0.0,0 STARLINK-3566,1 51880U 22022AE  23189.94691772 -.00000953  00000-0 -41779-4 0  9999,2 51880  53.2182  64.6330 0001192  83.1932 276.9196 15.08843557 75969,6917.87,95.437,540.559,538.91,0.0
51880.0,STARLINK-3566,PAYLOAD,2023-07-09 17:48:11,15.08833433,0.0001177,53.2178,61.0668,88.0136,272.0991,2.8549e-05,1.66e-06,0.0,0 STARLINK-3566,1 51880U 22022AE  23190.74180543  .00000166  00000-0  28549-4 0  9992,2 51880  53.2178  61.0668 0001177  88.0136 272.0991 15.08833433 76088,6917.9,95.438,540.58,538.951,0.0
51880.0,STARLINK-3566,PAYLOAD,2023-07-10 08:06:39,15.08840454,0.0001138,53.2179,58.3904,88.7318,271.3804,3.8434e-05,3.24e-06,0.0,0 STARLINK-3566,1 51880U 22022AE  23191.33796194  .00000324  00000-0  38434-4 0  9993,2 51880  53.2179  58.3904 0001138  88.7318 271.3804 15.08840454 76173,6917.879,95.438,540.531,538.957,0.0
51880.0,STARLINK-3566,PAYLOAD,2023-07-11 23:51:18,15.08842166,0.0001089,53.2178,50.9556,91.0639,269.0478,5.3656e-05,5.66e-06,0.0,0 STARLINK-3566,1 51880U 22022AE  23192.99396181  .00000566  00000-0  53656-4 0  9999,2 51880  53.2178  50.9556 0001089  91.0639 269.0478 15.08842166 76422,6917.874,95.437,540.492,538.985,0.0
51880.0,STARLINK-3566,PAYLOAD,2023-07-12 18:55:56,15.08837719,0.0001226,53.2175,47.3875,82.6823,277.4309,4.6141e-05,4.47e-06,0.0,0 STARLINK-3566,1 51880U 22022AE  23193.78884627  .00000447  00000-0  46141-4 0  9993,2 51880  53.2175  47.3875 0001226  82.6823 277.4309 15.08837719 76544,6917.887,95.438,540.6,538.904,0.0
51880.0,STARLINK-3566,PAYLOAD,2023-07-13 20:22:06,15.08846988,0.0001244,53.2183,42.6285,90.2662,269.8473,2.4232e-05,9.8e-07,0.0,0 STARLINK-3566,1 51880U 22022AE  23194.84868142  .00000098  00000-0  24232-4 0  9994,2 51880  53.2183  42.6285 0001244  90.2662 269.8473 15.08846988 76705,6917.859,95.437,540.585,538.863,0.0
51880.0,STARLINK-3566,PAYLOAD,2023-07-14 17:02:07,15.08827653,0.0001248,53.2182,38.7624,91.6894,268.4241,0.00025198,3.723e-05,0.0,0 STARLINK-3566,1 51880U 22022AE  23195.70980815  .00003723  00000-0  25198-3 0  9991,2 51880  53.2182  38.7624 0001248  91.6894 268.4241 15.08827653 76833,6917.918,95.438,540.646,538.92,0.0
51880.0,STARLINK-3566,PAYLOAD,2023-07-14 20:12:53,15.08843167,0.000124,53.2182,38.1674,90.5318,269.5817,0.00011194,1.494e-05,0.0,0 STARLINK-3566,1 51880U 22022AE  23195.84228122  .00001494  00000-0  11194-3 0  9996,2 51880  53.2182  38.1674 0001240  90.5318 269.5817 15.08843167 76854,6917.871,95.437,540.594,538.878,0.0
51880.0,STARLINK-3566,PAYLOAD,2023-07-15 16:52:54,15.08837913,0.0001417,53.2188,34.301,95.0614,265.054,7.4367e-06,-1.7e-06,0.0,0 STARLINK-3566,1 51880U 22022AE  23196.70340778 -.00000170  00000-0  74367-5 0  9998,2 51880  53.2188  34.3010 0001417  95.0614 265.0540 15.08837913 76987,6917.887,95.438,540.732,538.772,0.0
51880.0,STARLINK-3566,PAYLOAD,2023-07-16 05:36:00,15.0883324,0.0001153,53.2176,31.9256,79.0074,281.1048,-3.4832e-05,-8.42e-06,0.0,0 STARLINK-3566,1 51880U 22022AE  23197.23333479 -.00000842  00000-0 -34832-4 0  9996,2 51880  53.2176  31.9256 0001153  79.0074 281.1048 15.08833240 77069,6917.901,95.438,540.564,538.968,0.0
51880.0,STARLINK-3566,PAYLOAD,2023-07-16 16:43:42,15.08825205,0.000137,53.2199,29.8467,96.1015,264.0133,-0.00010737,-1.996e-05,0.0,0 STARLINK-3566,1 51880U 22022AE  23197.69702485 -.00001996  00000-0 -10737-3 0  9991,2 51880  53.2199  29.8467 0001370  96.1015 264.0133 15.08825205 77135,6917.926,95.438,540.738,538.843,0.0
51880.0,STARLINK-3566,PAYLOAD,2023-07-17 19:45:15,15.08845745,0.0001216,53.2191,24.7906,89.3782,270.735,0.00015382,2.161e-05,0.0,0 STARLINK-3566,1 51880U 22022AE  23198.82309060  .00002161  00000-0  15382-3 0  9993,2 51880  53.2191  24.7906 0001216  89.3782 270.7350 15.08845745 77308,6917.863,95.437,540.569,538.887,0.0
51880.0,STARLINK-3566,PAYLOAD,2023-07-18 11:39:06,15.08839143,0.0001278,53.2194,21.8158,91.3834,268.7305,0.00019829,2.869e-05,0.0,0 STARLINK-3566,1 51880U 22022AE  23199.48549431  .00002869  00000-0  19829-3 0  9999,2 51880  53.2194  21.8158 0001278  91.3834 268.7305 15.08839143 77400,6917.883,95.438,540.632,538.864,0.0
51880.0,STARLINK-3566,PAYLOAD,2023-07-19 11:29:54,15.08837934,0.0001132,53.2182,17.3534,92.521,267.5912,7.7332e-05,9.43e-06,0.0,0 STARLINK-3566,1 51880U 22022AE  23200.47910049  .00000943  00000-0  77332-4 0  9993,2 51880  53.2182  17.3534 0001132  92.5210 267.5912 15.08837934 77558,6917.887,95.438,540.535,538.969,0.0
51880.0,STARLINK-3566,PAYLOAD,2023-07-20 17:42:12,15.0885583,0.0001143,53.2189,11.7037,99.0305,261.0817,9.3969e-05,1.209e-05,0.0,0 STARLINK-3566,1 51880U 22022AE  23201.73764601  .00001209  00000-0  93969-4 0  9994,2 51880  53.2189  11.7037 0001143  99.0305 261.0817 15.08855830 77749,6917.832,95.437,540.488,538.906,0.0
51880.0,STARLINK-3566,PAYLOAD,2023-07-21 11:11:27,15.0882912,0.0001313,53.2195,8.4366,71.951,288.1625,0.00035964,5.439e-05,0.0,0 STARLINK-3566,1 51880U 22022AE  23202.46629561  .00005439  00000-0  35964-3 0  9999,2 51880  53.2195   8.4366 0001313  71.9510 288.1625 15.08829120 77852,6917.914,95.438,540.687,538.87,0.0
51880.0,STARLINK-3566,PAYLOAD,2023-07-24 09:08:26,15.08839131,0.0001092,53.2186,355.3481,101.1575,258.954,6.3974e-05,7.3e-06,0.0,0 STARLINK-3566,1 51880U 22022AE  23205.38085688  .00000730  00000-0  63974-4 0  9991,2 51880  53.2186 355.3481 0001092 101.1575 258.9540 15.08839131 78298,6917.883,95.438,540.503,538.993,0.0
51880.0,STARLINK-3566,PAYLOAD,2023-07-25 10:34:36,15.0884003,0.000107,53.2155,350.5887,88.7724,271.339,0.00011255,1.504e-05,0.0,0 STARLINK-3566,1 51880U 22022AE  23206.44069719  .00001504  00000-0  11255-3 0  9990,2 51880  53.2155 350.5887 0001070  88.7724 271.3390 15.08840030 78453,6917.88,95.438,540.486,539.005,0.0
51880.0,STARLINK-3566,PAYLOAD,2023-07-26 08:50:00,15.08837231,0.0001052,53.2178,346.4269,72.0261,288.0846,2.588e-05,1.24e-06,0.0,0 STARLINK-3566,1 51880U 22022AE  23207.36806426  .00000124  00000-0  25880-4 0  9993,2 51880  53.2178 346.4269 0001052  72.0261 288.0846 15.08837231 78593,6917.889,95.438,540.482,539.026,0.0
51880.0,STARLINK-3566,PAYLOAD,2023-07-27 02:19:14,15.08853768,7.43e-05,53.2169,343.1568,58.0482,302.0582,5.1522e-05,5.33e-06,0.0,0 STARLINK-3566,1 51880U 22022AE  23208.09669246  .00000533  00000-0  51522-4 0  9997,2 51880  53.2169 343.1568 0000743  58.0482 302.0582 15.08853768 78704,6917.838,95.437,540.217,539.189,0.0
51880.0,STARLINK-3566,PAYLOAD,2023-07-27 08:40:47,15.08832849,0.0001235,53.218,341.9712,20.6709,339.4333,0.00019206,2.77e-05,0.0,0 STARLINK-3566,1 51880U 22022AE  23208.36166049  .00002770  00000-0  19206-3 0  9997,2 51880  53.2180 341.9712 0001235  20.6709 339.4333 15.08832849 78747,6917.902,95.438,540.622,538.913,0.0
51880.0,STARLINK-3566,PAYLOAD,2023-07-27 15:02:20,15.08830304,9.64e-05,53.2185,340.7807,43.1622,316.9446,0.00011854,1.599e-05,0.0,0 STARLINK-3566,1 51880U 22022AE  23208.62662489  .00001599  00000-0  11854-3 0  9994,2 51880  53.2185 340.7807 0000964  43.1622 316.9446 15.08830304 78789,6917.91,95.438,540.442,539.108,0.0
